{"type": "FeatureCollection", "features": [ {"type": "Feature", "properties": {"norad_id": 60989, "name": "SENTINEL-2C", "group": "resource", "lat": 15.54251952459726, "lon": 64.12717336826125, "alt_km": 789.510820669233, "timestamp": "2025-12-20T03:42:47.050088+00:00", "meta": {"OBJECT_NAME": "SENTINEL-2C", "OBJECT_ID": "2024-157A", "EPOCH": "2025-12-19T04:08:36.032064", "MEAN_MOTION": 14.30819997, "ECCENTRICITY": 0.00012209, "INCLINATION": 98.5677, "RA_OF_ASC_NODE": 65.5625, "ARG_OF_PERICENTER": 96.2932, "MEAN_ANOMALY": 263.839, "EPHEMERIS_TYPE": 0, "CLASSIFICATION_TYPE": "U", "NORAD_CAT_ID": 60989, "ELEMENT_SET_NO": 999, "REV_AT_EPOCH": 6724, "BSTAR": 5.9972626e-05, "MEAN_MOTION_DOT": 1.14e-06, "MEAN_MOTION_DDOT": 0}, "tle": {"line1": "1 60989U 24157A   25353.17263926  .00000114  00000+0  59973-4 0  9997", "line2": "2 60989  98.5677  65.5625 0001220  96.2932 263.8390 14.30819997 67242"}}, "geometry": {"type": "Point", "coordinates": [64.12717336826125, 15.54251952459726]}}, {"type": "Feature", "properties": {"norad_id": 61735, "name": "IONOSFERA-M 1", "group": "resource", "lat": 64.77398633232073, "lon": -155.1123509107973, "alt_km": 809.5734419513892, "timestamp": "2025-12-20T03:42:47.050098+00:00", "meta": {"OBJECT_NAME": "IONOSFERA-M 1", "OBJECT_ID": "2024-199A", "EPOCH": "2025-12-19T18:57:48.694752", "MEAN_MOTION": 14.22715455, "ECCENTRICITY": 6.21e-05, "INCLINATION": 98.7399, "RA_OF_ASC_NODE": 223.5841, "ARG_OF_PERICENTER": 12.7318, "MEAN_ANOMALY": 347.3875, "EPHEMERIS_TYPE": 0, "CLASSIFICATION_TYPE": "U", "NORAD_CAT_ID": 61735, "ELEMENT_SET_NO": 999, "REV_AT_EPOCH": 10219, "BSTAR": 3.7465e-05, "MEAN_MOTION_DOT": 4e-07, "MEAN_MOTION_DDOT": 0}, "tle": {"line1": "1 61735U 24199A   25353.79014693  .00000040  00000+0  37465-4 0  9996", "line2": "2 61735  98.7399 223.5841 0000621  12.7318 347.3875 14.22715455102191"}}, "geometry": {"type": "Point", "coordinates": [-155.1123509107973, 64.77398633232073]}}, {"type": "Feature", "properties": {"norad_id": 61736, "name": "IONOSFERA-M 2", "group": "resource", "lat": -67.38372374656632, "lon": 22.188171697009896, "alt_km": 824.4966776540696, "timestamp": "2025-12-20T03:42:47.050109+00:00", "meta": {"OBJECT_NAME": "IONOSFERA-M 2", "OBJECT_ID": "2024-199B", "EPOCH": "2025-12-19T18:06:24.958656", "MEAN_MOTION": 14.22717649, "ECCENTRICITY": 0.0001791, "INCLINATION": 98.7398, "RA_OF_ASC_NODE": 223.4611, "ARG_OF_PERICENTER": 101.7231, "MEAN_ANOMALY": 258.4147, "EPHEMERIS_TYPE": 0, "CLASSIFICATION_TYPE": "U", "NORAD_CAT_ID": 61736, "ELEMENT_SET_NO": 999, "REV_AT_EPOCH": 10531, "BSTAR": 3.5946e-05, "MEAN_MOTION_DOT": 3.6e-07, "MEAN_MOTION_DDOT": 0}, "tle": {"line1": "1 61736U 24199B   25353.75445554  .00000036  00000+0  35946-4 0  9994", "line2": "2 61736  98.7398 223.4611 0001791 101.7231 258.4147 14.22717649105315"}}, "geometry": {"type": "Point", "coordinates": [22.188171697009896, -67.38372374656632]}}, {"type": "Feature", "properties": {"norad_id": 63772, "name": "BIOMASS", "group": "resource", "lat": -15.598397782099338, "lon": -3.213876376421524, "alt_km": 674.0868466909551, "timestamp": "2025-12-20T03:42:47.050118+00:00", "meta": {"OBJECT_NAME": "BIOMASS", "OBJECT_ID": "2025-090A", "EPOCH": "2025-12-19T10:27:38.474208", "MEAN_MOTION": 14.67534976, "ECCENTRICITY": 0.000107, "INCLINATION": 98.07, "RA_OF_ASC_NODE": 178.3481, "ARG_OF_PERICENTER": 79.7157, "MEAN_ANOMALY": 280.4168, "EPHEMERIS_TYPE": 0, "CLASSIFICATION_TYPE": "U", "NORAD_CAT_ID": 63772, "ELEMENT_SET_NO": 999, "REV_AT_EPOCH": 3432, "BSTAR": 0.00014315, "MEAN_MOTION_DOT": 7.64e-06, "MEAN_MOTION_DDOT": 0}, "tle": {"line1": "1 63772U 25090A   25353.43586197  .00000764  00000+0  14315-3 0  9995", "line2": "2 63772  98.0700 178.3481 0001070  79.7157 280.4168 14.67534976 34320"}}, "geometry": {"type": "Point", "coordinates": [-3.213876376421524, -15.598397782099338]}}, {"type": "Feature", "properties": {"norad_id": 64694, "name": "GOSAT-GW (IBUKI GW)", "group": "resource", "lat": 45.149649739435525, "lon": -78.63889563645449, "alt_km": 664.1673044288145, "timestamp": "2025-12-20T03:42:47.050128+00:00", "meta": {"OBJECT_NAME": "GOSAT-GW (IBUKI GW)", "OBJECT_ID": "2025-141A", "EPOCH": "2025-12-19T20:57:36.271008", "MEAN_MOTION": 14.67564393, "ECCENTRICITY": 0.0001445, "INCLINATION": 98.0434, "RA_OF_ASC_NODE": 289.257, "ARG_OF_PERICENTER": 83.5817, "MEAN_ANOMALY": 276.5552, "EPHEMERIS_TYPE": 0, "CLASSIFICATION_TYPE": "U", "NORAD_CAT_ID": 64694, "ELEMENT_SET_NO": 999, "REV_AT_EPOCH": 2554, "BSTAR": 7.1519e-05, "MEAN_MOTION_DOT": 3.58e-06, "MEAN_MOTION_DDOT": 0}, "tle": {"line1": "1 64694U 25141A   25353.87333647  .00000358  00000+0  71519-4 0  9993", "line2": "2 64694  98.0434 289.2570 0001445  83.5817 276.5552 14.67564393 25544"}}, "geometry": {"type": "Point", "coordinates": [-78.63889563645449, 45.149649739435525]}}, {"type": "Feature", "properties": {"norad_id": 64876, "name": "IONOSFERA-M 3", "group": "resource", "lat": -76.21909338146551, "lon": 97.8238757612857, "alt_km": 829.0361521438308, "timestamp": "2025-12-20T03:42:47.050138+00:00", "meta": {"OBJECT_NAME": "IONOSFERA-M 3", "OBJECT_ID": "2025-155A", "EPOCH": "2025-12-19T21:25:45.690816", "MEAN_MOTION": 14.21442672, "ECCENTRICITY": 0.0002032, "INCLINATION": 98.5792, "RA_OF_ASC_NODE": 315.5568, "ARG_OF_PERICENTER": 48.5671, "MEAN_ANOMALY": 311.5681, "EPHEMERIS_TYPE": 0, "CLASSIFICATION_TYPE": "U", "NORAD_CAT_ID": 64876, "ELEMENT_SET_NO": 999, "REV_AT_EPOCH": 2093, "BSTAR": 3.8671e-05, "MEAN_MOTION_DOT": 4.2e-07, "MEAN_MOTION_DDOT": 0}, "tle": {"line1": "1 64876U 25155A   25353.89288994  .00000042  00000+0  38671-4 0  9998", "line2": "2 64876  98.5792 315.5568 0002032  48.5671 311.5681 14.21442672 20936"}}, "geometry": {"type": "Point", "coordinates": [97.8238757612857, -76.21909338146551]}}, {"type": "Feature", "properties": {"norad_id": 64877, "name": "IONOSFERA-M 4", "group": "resource", "lat": 76.72935514472283, "lon": -84.06608762436235, "alt_km": 812.28082663242, "timestamp": "2025-12-20T03:42:47.050148+00:00", "meta": {"OBJECT_NAME": "IONOSFERA-M 4", "OBJECT_ID": "2025-155B", "EPOCH": "2025-12-19T20:34:53.153760", "MEAN_MOTION": 14.2144382, "ECCENTRICITY": 0.0001432, "INCLINATION": 98.5791, "RA_OF_ASC_NODE": 315.4419, "ARG_OF_PERICENTER": 56.2825, "MEAN_ANOMALY": 303.8489, "EPHEMERIS_TYPE": 0, "CLASSIFICATION_TYPE": "U", "NORAD_CAT_ID": 64877, "ELEMENT_SET_NO": 999, "REV_AT_EPOCH": 2092, "BSTAR": 3.8579e-05, "MEAN_MOTION_DOT": 4.2e-07, "MEAN_MOTION_DDOT": 0}, "tle": {"line1": "1 64877U 25155B   25353.85755965  .00000042  00000+0  38579-4 0  9999", "line2": "2 64877  98.5791 315.4419 0001432  56.2825 303.8489 14.21443820 20925"}}, "geometry": {"type": "Point", "coordinates": [-84.06608762436235, 76.72935514472283]}}, {"type": "Feature", "properties": {"norad_id": 64899, "name": "MICROCARB", "group": "resource", "lat": 35.94634583634107, "lon": -104.76458793186158, "alt_km": 640.5645571843725, "timestamp": "2025-12-20T03:42:47.050158+00:00", "meta": {"OBJECT_NAME": "MICROCARB", "OBJECT_ID": "2025-156A", "EPOCH": "2025-12-19T10:45:02.700288", "MEAN_MOTION": 14.72067357, "ECCENTRICITY": 0.0017459, "INCLINATION": 98.0019, "RA_OF_ASC_NODE": 68.6857, "ARG_OF_PERICENTER": 124.5488, "MEAN_ANOMALY": 235.737, "EPHEMERIS_TYPE": 0, "CLASSIFICATION_TYPE": "U", "NORAD_CAT_ID": 64899, "ELEMENT_SET_NO": 999, "REV_AT_EPOCH": 2152, "BSTAR": 8.8769e-05, "MEAN_MOTION_DOT": 5.09e-06, "MEAN_MOTION_DDOT": 0}, "tle": {"line1": "1 64899U 25156A   25353.44794792  .00000509  00000+0  88769-4 0  9994", "line2": "2 64899  98.0019  68.6857 0017459 124.5488 235.7370 14.72067357 21522"}}, "geometry": {"type": "Point", "coordinates": [-104.76458793186158, 35.94634583634107]}}, {"type": "Feature", "properties": {"norad_id": 64900, "name": "CO3D 3", "group": "resource", "lat": 27.386383825303437, "lon": 66.53696564513625, "alt_km": 503.56761929349614, "timestamp": "2025-12-20T03:42:47.050169+00:00", "meta": {"OBJECT_NAME": "CO3D 3", "OBJECT_ID": "2025-156B", "EPOCH": "2025-12-19T19:41:35.282400", "MEAN_MOTION": 15.20196017, "ECCENTRICITY": 0.0001387, "INCLINATION": 97.4348, "RA_OF_ASC_NODE": 70.0866, "ARG_OF_PERICENTER": 76.6295, "MEAN_ANOMALY": 283.5094, "EPHEMERIS_TYPE": 0, "CLASSIFICATION_TYPE": "U", "NORAD_CAT_ID": 64900, "ELEMENT_SET_NO": 999, "REV_AT_EPOCH": 2228, "BSTAR": 0.00025856, "MEAN_MOTION_DOT": 5.533e-05, "MEAN_MOTION_DDOT": 0}, "tle": {"line1": "1 64900U 25156B   25353.82054725  .00005533  00000+0  25856-3 0  9993", "line2": "2 64900  97.4348  70.0866 0001387  76.6295 283.5094 15.20196017 22284"}}, "geometry": {"type": "Point", "coordinates": [66.53696564513625, 27.386383825303437]}}, {"type": "Feature", "properties": {"norad_id": 64901, "name": "CO3D 4", "group": "resource", "lat": 26.6843432771937, "lon": 66.6527660370176, "alt_km": 504.938250603037, "timestamp": "2025-12-20T03:42:47.050179+00:00", "meta": {"OBJECT_NAME": "CO3D 4", "OBJECT_ID": "2025-156C", "EPOCH": "2025-12-19T14:57:26.055072", "MEAN_MOTION": 15.20230123, "ECCENTRICITY": 0.0001264, "INCLINATION": 97.434, "RA_OF_ASC_NODE": 69.8917, "ARG_OF_PERICENTER": 174.7354, "MEAN_ANOMALY": 185.3894, "EPHEMERIS_TYPE": 0, "CLASSIFICATION_TYPE": "U", "NORAD_CAT_ID": 64901, "ELEMENT_SET_NO": 999, "REV_AT_EPOCH": 2225, "BSTAR": 0.00021367, "MEAN_MOTION_DOT": 4.564e-05, "MEAN_MOTION_DDOT": 0}, "tle": {"line1": "1 64901U 25156C   25353.62321823  .00004564  00000+0  21367-3 0  9994", "line2": "2 64901  97.4340  69.8917 0001264 174.7354 185.3894 15.20230123 22251"}}, "geometry": {"type": "Point", "coordinates": [66.6527660370176, 26.6843432771937]}}]}